GLOBALSTAR M075 [+]     
1 37192U 10054E   24068.55433065 -.00000091  00000+0  68579-4 0  9992
2 37192  51.9938 159.2887 0000547 106.3531 279.8370 12.62271371617208
GLOBALSTAR M073 [+]     
1 37193U 10054F   24069.19940396 -.00000097  00000+0  38767-4 0  9996
2 37193  52.0056  70.7841 0000446  89.2506 351.1869 12.62262385619167
GLOBALSTAR M083 [+]     
1 37739U 11033A   24068.60145501 -.00000093  00000+0  59943-4 0  9995
2 37739  51.9884  21.9732 0000224  57.3568 124.3774 12.62266232588058
GLOBALSTAR M088 [+]     
1 37740U 11033B   24068.85611650 -.00000062  00000+0  23347-3 0  9991
2 37740  51.9728 287.0837 0000652  69.6306 310.4438 12.62265816583630
GLOBALSTAR M091 [+]     
1 37741U 11033C   24068.79127770 -.00000087  00000+0  94279-4 0  9990
2 37741  51.9976 250.0017 0000627  75.7134 309.6666 12.62272209584419
GLOBALSTAR M085 [+]     
1 37742U 11033D   24068.61763589 -.00000109  00000+0 -31521-4 0  9993
2 37742  51.9853 201.9809 0000548  97.0650 278.1493 12.62268381584908
GLOBALSTAR M081 [+]     
1 37743U 11033E   24068.64561162 -.00000113  00000+0 -49279-4 0  9994
2 37743  51.9942 204.3946 0000676  80.3863 302.5628 12.62270424585050
GLOBALSTAR M089 [+]     
1 37744U 11033F   24068.95684138 -.00000098  00000+0  31776-4 0  9992
2 37744  51.9921 157.7647 0001002  98.6371  78.2599 12.62272010585931
